STARLINK-2022           
1 47643U 21012Z   24148.55751943  .00000508  00000+0  52996-4 0  9995
2 47643  53.0547  94.6704 0000982 114.1256 245.9836 15.06393803182128
